NORAD_CAT_ID,OBJECT_NAME,OBJECT_TYPE,EPOCH,MEAN_MOTION,ECCENTRICITY,INCLINATION,RA_OF_ASC_NODE,ARG_OF_PERICENTER,MEAN_ANOMALY,BSTAR,MEAN_MOTION_DOT,MEAN_MOTION_DDOT,TLE_LINE0,TLE_LINE1,TLE_LINE2,SEMIMAJOR_AXIS,PERIOD,APOGEE,PERIGEE,DECAYED
53396.0,STARLINK-4524,PAYLOAD,2024-05-26 02:08:48,15.08833313,0.0001414,53.2172,173.7568,98.3507,261.7645,-4.4041e-05,-9.89e-06,0.0,0 STARLINK-4524,1 53396U 22097J   24147.08945014 -.00000989  00000-0 -44041-4 0  9990,2 53396  53.2172 173.7568 0001414  98.3507 261.7645 15.08833313 99506,6917.901,95.438,540.744,538.788,0.0
53396.0,STARLINK-4524,PAYLOAD,2024-05-26 08:30:21,15.08831794,0.0001498,53.2168,172.568,98.3135,261.8027,-5.087e-05,-1.097e-05,0.0,0 STARLINK-4524,1 53396U 22097J   24147.35441165 -.00001097  00000-0 -50870-4 0  9996,2 53396  53.2168 172.5680 0001498  98.3135 261.8027 15.08831794100039,6917.905,95.438,540.807,538.734,0.0
53396.0,STARLINK-4524,PAYLOAD,2024-05-27 05:10:21,15.08834941,0.0001418,53.2167,168.7016,97.1267,262.9887,6.5847e-05,7.6e-06,0.0,0 STARLINK-4524,1 53396U 22097J   24148.21552894  .00000760  00000-0  65847-4 0  9998,2 53396  53.2167 168.7016 0001418  97.1267 262.9887 15.08834941 99673,6917.896,95.438,540.742,538.78,0.0
53396.0,STARLINK-4524,PAYLOAD,2024-05-27 08:21:08,15.08833064,0.0001468,53.2171,168.1079,98.3272,261.7887,7.1693e-05,8.53e-06,0.0,0 STARLINK-4524,1 53396U 22097J   24148.34801025  .00000853  00000-0  71693-4 0  9994,2 53396  53.2171 168.1079 0001468  98.3272 261.7887 15.08833064100186,6917.902,95.438,540.782,538.751,0.0
53396.0,STARLINK-4524,PAYLOAD,2024-05-27 17:53:26,15.08832905,0.0001383,53.2168,166.3229,98.0248,262.0901,9.9443e-05,1.295e-05,0.0,0 STARLINK-4524,1 53396U 22097J   24148.74545093  .00001295  00000-0  99443-4 0  9992,2 53396  53.2168 166.3229 0001383  98.0248 262.0901 15.08832905100246,6917.902,95.438,540.724,538.81,0.0
53396.0,STARLINK-4524,PAYLOAD,2024-05-28 08:11:54,15.08840604,0.0001279,53.2159,163.6461,90.0992,270.0147,0.0001305,1.79e-05,0.0,0 STARLINK-4524,1 53396U 22097J   24149.34160618  .00001790  00000-0  13050-3 0  9994,2 53396  53.2159 163.6461 0001279  90.0992 270.0147 15.08840604 99845,6917.879,95.438,540.628,538.859,0.0
53396.0,STARLINK-4524,PAYLOAD,2024-05-29 11:13:28,15.08841273,0.000127,53.2154,158.5914,87.0674,273.0464,3.5549e-05,2.78e-06,0.0,0 STARLINK-4524,1 53396U 22097J   24150.46768844  .00000278  00000-0  35549-4 0  9992,2 53396  53.2154 158.5914 0001270  87.0674 273.0464 15.08841273100010,6917.876,95.437,540.62,538.863,0.0
53396.0,STARLINK-4524,PAYLOAD,2024-05-30 07:53:28,15.08842761,0.0001355,53.2159,154.7255,89.9821,270.1326,3.2955e-05,2.37e-06,0.0,0 STARLINK-4524,1 53396U 22097J   24151.32880650  .00000237  00000-0  32955-4 0  9991,2 53396  53.2159 154.7255 0001355  89.9821 270.1326 15.08842761100636,6917.872,95.437,540.674,538.8,0.0
53396.0,STARLINK-4524,PAYLOAD,2024-05-31 04:33:29,15.08843637,0.0001436,53.2164,150.8603,85.999,274.1166,7.0749e-05,8.38e-06,0.0,0 STARLINK-4524,1 53396U 22097J   24152.18992392  .00000838  00000-0  70749-4 0  9993,2 53396  53.2164 150.8603 0001436  85.9990 274.1166 15.08843637100278,6917.869,95.437,540.728,538.741,0.0
53396.0,STARLINK-4524,PAYLOAD,2024-05-31 09:19:38,15.08845558,0.0001469,53.2164,149.9681,84.5829,275.533,8.408e-05,1.051e-05,0.0,0 STARLINK-4524,1 53396U 22097J   24152.38864207  .00001051  00000-0  84080-4 0  9999,2 53396  53.2164 149.9681 0001469  84.5829 275.5330 15.08845558100794,6917.863,95.437,540.745,538.712,0.0
53396.0,STARLINK-4524,PAYLOAD,2024-05-31 17:16:34,15.08843123,0.0001469,53.2164,148.4814,86.6641,273.4519,5.4704e-05,5.83e-06,0.0,0 STARLINK-4524,1 53396U 22097J   24152.71984373  .00000583  00000-0  54704-4 0  9992,2 53396  53.2164 148.4814 0001469  86.6641 273.4519 15.08843123100849,6917.871,95.437,540.752,538.72,0.0
53396.0,STARLINK-4524,PAYLOAD,2024-06-01 05:59:39,15.08839258,0.0001393,53.2158,146.1021,92.1493,267.9659,3.453e-05,2.62e-06,0.0,0 STARLINK-4524,1 53396U 22097J   24153.24976568  .00000262  00000-0  34530-4 0  9997,2 53396  53.2158 146.1021 0001393  92.1493 267.9659 15.08839258100432,6917.883,95.438,540.711,538.784,0.0
53396.0,STARLINK-4524,PAYLOAD,2024-06-01 09:10:25,15.08840656,0.0001417,53.2162,145.5069,94.2089,265.9065,2.6509e-05,1.34e-06,0.0,0 STARLINK-4524,1 53396U 22097J   24153.38224490  .00000134  00000-0  26509-4 0  9997,2 53396  53.2162 145.5069 0001417  94.2089 265.9065 15.08840656100942,6917.878,95.438,540.724,538.763,0.0
53396.0,STARLINK-4524,PAYLOAD,2024-06-02 05:50:27,15.0883771,0.0001465,53.2166,141.6407,96.7024,263.4135,-1.8883e-05,-5.88e-06,0.0,0 STARLINK-4524,1 53396U 22097J   24154.24336856 -.00000588  00000-0 -18883-4 0  9994,2 53396  53.2166 141.6407 0001465  96.7024 263.4135 15.08837710101071,6917.887,95.438,540.766,538.739,0.0
53396.0,STARLINK-4524,PAYLOAD,2024-06-03 05:41:14,15.08837224,0.0001392,53.2168,137.1819,92.0827,268.0325,3.5449e-05,2.76e-06,0.0,0 STARLINK-4524,1 53396U 22097J   24155.23697018  .00000276  00000-0  35449-4 0  9993,2 53396  53.2168 137.1819 0001392  92.0827 268.0325 15.08837224100733,6917.889,95.438,540.717,538.791,0.0
53396.0,STARLINK-4524,PAYLOAD,2024-06-03 23:10:28,15.08838931,0.0001328,53.2164,133.9113,91.9003,268.2141,9.151e-05,1.169e-05,0.0,0 STARLINK-4524,1 53396U 22097J   24155.96560862  .00001169  00000-0  91510-4 0  9992,2 53396  53.2164 133.9113 0001328  91.9003 268.2141 15.08838931101334,6917.884,95.438,540.667,538.83,0.0
53396.0,STARLINK-4524,PAYLOAD,2024-06-04 08:42:46,15.0884577,0.0001356,53.2168,132.1271,91.8582,268.2566,0.0001235,1.678e-05,0.0,0 STARLINK-4524,1 53396U 22097J   24156.36304356  .00001678  00000-0  12350-3 0  9990,2 53396  53.2168 132.1271 0001356  91.8582 268.2566 15.08845770100908,6917.863,95.437,540.666,538.79,0.0
53396.0,STARLINK-4524,PAYLOAD,2024-06-04 15:04:19,15.08839503,0.0001361,53.2168,130.9374,89.4771,270.6377,0.00011591,1.557e-05,0.0,0 STARLINK-4524,1 53396U 22097J   24156.62800868  .00001557  00000-0  11591-3 0  9990,2 53396  53.2168 130.9374 0001361  89.4771 270.6377 15.08839503100945,6917.882,95.438,540.688,538.805,0.0
53396.0,STARLINK-4524,PAYLOAD,2024-06-05 03:47:26,15.08830624,0.0001544,53.2176,128.5583,90.1938,269.9231,-2.1281e-05,-6.27e-06,0.0,0 STARLINK-4524,1 53396U 22097J   24157.15794051 -.00000627  00000-0 -21281-4 0  9992,2 53396  53.2176 128.5583 0001544  90.1938 269.9231 15.08830624101021,6917.909,95.438,540.842,538.706,0.0
53396.0,STARLINK-4524,PAYLOAD,2024-06-05 06:58:12,15.08832048,0.0001482,53.2174,127.9648,90.7225,269.3937,-2.4037e-06,-3.26e-06,0.0,0 STARLINK-4524,1 53396U 22097J   24157.29041950 -.00000326  00000-0 -24037-5 0  9999,2 53396  53.2174 127.9648 0001482  90.7225 269.3937 15.08832048101535,6917.905,95.438,540.795,538.744,0.0
53396.0,STARLINK-4524,PAYLOAD,2024-06-05 14:55:07,15.08836164,0.0001435,53.2173,126.477,86.4458,273.6698,2.2522e-05,7e-07,0.0,0 STARLINK-4524,1 53396U 22097J   24157.62161747  .00000070  00000-0  22522-4 0  9993,2 53396  53.2173 126.4770 0001435  86.4458 273.6698 15.08836164101582,6917.892,95.438,540.75,538.764,0.0
53396.0,STARLINK-4524,PAYLOAD,2024-06-06 05:13:35,15.08848766,0.000136,53.2171,123.7997,82.5087,277.6059,5.9803e-05,6.64e-06,0.0,0 STARLINK-4524,1 53396U 22097J   24158.21776866  .00000664  00000-0  59803-4 0  9994,2 53396  53.2171 123.7997 0001360  82.5087 277.6059 15.08848766101185,6917.854,95.437,540.659,538.778,0.0
53396.0,STARLINK-4524,PAYLOAD,2024-06-06 14:45:54,15.08846517,0.0001367,53.2172,122.0173,94.1248,265.99,1.58e-05,-3.6e-07,0.0,0 STARLINK-4524,1 53396U 22097J   24158.61521028 -.00000036  00000-0  15800-4 0  9999,2 53396  53.2172 122.0173 0001367  94.1248 265.9900 15.08846517101737,6917.86,95.437,540.671,538.78,0.0
53396.0,STARLINK-4524,PAYLOAD,2024-06-07 14:36:41,15.08840202,0.0001401,53.2172,117.559,93.0713,267.0439,9.343e-05,1.199e-05,0.0,0 STARLINK-4524,1 53396U 22097J   24159.60881522  .00001199  00000-0  93430-4 0  9992,2 53396  53.2172 117.5590 0001401  93.0713 267.0439 15.08840202101884,6917.88,95.438,540.714,538.776,0.0
53396.0,STARLINK-4524,PAYLOAD,2024-06-08 03:19:46,15.08849661,0.0001382,53.2177,115.1753,101.2455,258.8692,0.00010101,1.32e-05,0.0,0 STARLINK-4524,1 53396U 22097J   24160.13872751  .00001320  00000-0  10101-3 0  9995,2 53396  53.2177 115.1753 0001382 101.2455 258.8692 15.08849661101479,6917.851,95.437,540.672,538.76,0.0
53396.0,STARLINK-4524,PAYLOAD,2024-06-08 14:27:28,15.08845035,0.0001101,53.2176,113.0978,93.9968,266.115,6.4378e-05,7.37e-06,0.0,0 STARLINK-4524,1 53396U 22097J   24160.60241014  .00000737  00000-0  64378-4 0  9996,2 53396  53.2176 113.0978 0001101  93.9968 266.1150 15.08845035102034,6917.865,95.437,540.492,538.968,0.0
53396.0,STARLINK-4524,PAYLOAD,2024-06-09 03:10:34,15.0883196,0.0001731,53.2159,110.715,102.9625,257.156,-3.7352e-06,-3.48e-06,0.0,0 STARLINK-4524,1 53396U 22097J   24161.13234276 -.00000348  00000-0 -37352-5 0  9990,2 53396  53.2159 110.7150 0001731 102.9625 257.1560 15.08831960101622,6917.905,95.438,540.967,538.572,0.0
53396.0,STARLINK-4524,PAYLOAD,2024-06-09 11:07:30,15.08827035,0.0001366,53.2172,109.2288,100.1637,259.951,-1.2763e-05,-4.91e-06,0.0,0 STARLINK-4524,1 53396U 22097J   24161.46354780 -.00000491  00000-0 -12763-4 0  9996,2 53396  53.2172 109.2288 0001366 100.1637 259.9510 15.08827035102162,6917.92,95.438,540.73,538.84,0.0
53396.0,STARLINK-4524,PAYLOAD,2024-06-09 20:39:49,15.08834978,0.0001495,53.2161,107.4426,114.4701,245.6448,-3.4693e-06,-3.43e-06,0.0,0 STARLINK-4524,1 53396U 22097J   24161.86098424 -.00000343  00000-0 -34693-5 0  9993,2 53396  53.2161 107.4426 0001495 114.4701 245.6448 15.08834978102220,6917.896,95.438,540.795,538.727,0.0
53396.0,STARLINK-4524,PAYLOAD,2024-06-10 03:01:21,15.08843344,0.0001436,53.2154,106.2546,105.4242,254.6909,0.00016576,2.351e-05,0.0,0 STARLINK-4524,1 53396U 22097J   24162.12593972  .00002351  00000-0  16576-3 0  9998,2 53396  53.2154 106.2546 0001436 105.4242 254.6909 15.08843344101775,6917.87,95.437,540.729,538.742,0.0
